#aV2021 10 30  0  0  0.00000000     288 DD+AD WGS84 FIT  NGA
## 2181 518400.00000000   300.00000000 59517 0.0000000000000
+   32     1  2  3  4  5  6  7  8  9 10 11 12 13 14 15 16 17
+         18 19 20 21 22 23 24 25 26 27 28 29 30 31 32  0  0
+          0  0  0  0  0  0  0  0  0  0  0  0  0  0  0  0  0
+          0  0  0  0  0  0  0  0  0  0  0  0  0  0  0  0  0
+          0  0  0  0  0  0  0  0  0  0  0  0  0  0  0  0  0
++         2  2  2  2  2  2  2  2  2  2  2  2  2  2  2  2  2
++         2  2  2  2  2  2  2  2  2  2  2  2  2  2  2  0  0
++         0  0  0  0  0  0  0  0  0  0  0  0  0  0  0  0  0
++         0  0  0  0  0  0  0  0  0  0  0  0  0  0  0  0  0
++         0  0  0  0  0  0  0  0  0  0  0  0  0  0  0  0  0
%c cc cc ccc ccc cccc cccc cccc cccc ccccc ccccc ccccc ccccc
%c cc cc ccc ccc cccc cccc cccc cccc ccccc ccccc ccccc ccccc
%f  0.0000000  0.000000000  0.00000000000  0.000000000000000
%f  0.0000000  0.000000000  0.00000000000  0.000000000000000
%i    0    0    0    0      0      0      0      0         0
%i    0    0    0    0      0      0      0      0         0
/*      NGA, ST. LOUIS,MO.                                  
/*   EPHEMERIS COMPUTED FROM 2 DAYS OF DATA                 
/*   EPOCHA v7 SMOOTHER                                     
/*   G2139 IERS2010 SATIGS SATAPC                           
*  2021 10 30 19 25  0.00000000
P  1 -16230.776848  -3521.473472  20536.871502    524.548804                    
V  1  -9740.027750 -24700.347558 -11453.255724     -0.106492                    
P  2  14572.025526  21653.443428  -4005.009522   -639.872296                    
V  2    279.361655   6541.365446  31355.696815     -0.016995                    
P  3 -19324.365773   6917.325866  16696.242038     -2.396692                    
V  3  11367.847273 -18231.103933  20678.263122     -0.069414                    
P  4 -26035.312626    -24.448871  -5444.275103   -202.857169                    
V  4  -6431.775163  -3663.439330  30698.999624      0.006889                    
P  5  13440.868595   7513.759226 -21811.464265    -59.414636                    
V  5 -15315.107677  22607.151420  -1510.608191     -0.012817                    
P  6   4660.021727  24771.468668   8343.210264    106.335339                    
V  6  -5908.703043  -8881.297066  29951.341411      0.086961                    
P  7 -10041.225039  13229.653640 -20246.820605    270.748785                    
V  7 -11670.815143 -24050.552533 -10233.144844      0.057848                    
P  8 -25197.080835  -6585.097617  -6034.521782    -42.145207                    
V  8   7758.593516  -1568.148627 -30429.182987     -0.015393                    
P  9 -19965.079031   8906.418321 -15176.517532   -361.903507                    
V  9 -18857.207092  -3957.802966  22565.789925      0.000369                    
P 10  10152.863260 -23066.445400   8022.282473   -235.267325                    
V 10   8023.454761  -6623.326038 -29928.647115     -0.082777                    
P 11  11814.736345  23407.127742  -4304.463222     20.863884                    
V 11   -687.792640   6062.490149  31127.596413     -0.007611                    
P 12  19340.536581  -4348.912909  17358.996449   -119.161136                    
V 12 -13429.573103  18208.561884  19375.424801     -0.055230                    
P 13  20124.431684  13234.640624 -11514.634711    207.292222                    
V 13 -14390.060089  -1512.451309 -27096.063157      0.056042                    
P 14 -11207.974987  22732.655204   7842.909538    -29.106220                    
V 14  -8485.873970   5981.455250 -29515.096896     -0.072199                    
P 15  25815.320327   4230.108730  -5928.238728   -110.109047                    
V 15  -6968.883841   3375.580336 -29623.083489      0.027883                    
P 16 -10002.641177 -11398.574595 -22032.289344   -415.824843                    
V 16  18472.017544 -20199.991580   2539.465425     -0.063836                    
P 17  -7303.375494  13673.055494  22009.036996    526.688372                    
V 17 -26373.213044  -5003.845654  -5741.892197      0.054262                    
P 18   8932.555549 -14712.841890 -20208.040935    302.931950                    
V 18  10681.667963  23336.309953 -12368.298915     -0.054714                    
P 19   2818.489352  15284.127327  21298.873747     72.768364                    
V 19 -27024.547036  -5560.128430   7312.241913      0.049981                    
P 20   6120.117039  17840.132486 -18822.740335    518.375909                    
V 20 -12485.548247  20360.909934  14993.782773     -0.001865                    
P 21 -18763.638471 -11078.007945  16249.596672    149.478959                    
V 21  -7723.981424 -17596.948756 -21296.711104      0.011966                    
P 22 -16941.312340  -1018.821065  20557.834873   -476.635803                    
V 22  12157.285565 -22848.260357   9167.366146      0.091309                    
P 23  16965.882712 -20083.467062  -3476.296726     38.788808                    
V 23   -306.446809   5147.430061 -31511.302698     -0.045399                    
P 24  18469.987247   7280.245767  17559.198390    261.184889                    
V 24   8929.136393  21032.029724 -17427.153650      0.050373                    
P 25  19436.963608 -14730.556864   9916.225387    232.817658                    
V 25  -5444.431319  12214.825070  28337.623582      0.060340                    
P 26     92.762332 -21147.963102 -15951.393887    150.339020                    
V 26  13345.198355 -15525.427501  21030.592319      0.039101                    
P 27 -18641.771303 -12273.132776 -14861.535856   -213.003782                    
V 27  18423.942598    619.361066 -23550.640490     -0.048330                    
P 28  -5935.020069  21749.664837  14749.303310    472.467218                    
V 28 -12979.991133  12121.883764 -23787.954052     -0.073595                    
P 29  22882.466957  -4375.653645 -12854.983584   -433.688083                    
V 29  15599.128343   4662.819427  26200.073770     -0.053584                    
P 30  -2340.470345  22081.893584 -14326.432853   -487.088569                    
V 30  -9618.525074 -16018.302581 -23242.987790     -0.033672                    
P 31  -5720.241533 -24990.033006   5808.949577   -147.652984                    
V 31   5904.201865   5822.708511  30777.365154     -0.019443                    
P 32   2366.072959 -15168.047094  21785.804106    -16.063678                    
V 32  27233.356537   3069.474681  -1002.785744     -0.044215                    
EOF
